{
"type": "FeatureCollection",
"name": "AM_SEDES MUNICIPAIS",
"crs": { "type": "name", "properties": { "name": "urn:ogc:def:crs:OGC:1.3:CRS84" } },
"features": [
{ "type": "Feature", "properties": { "CID_MUN_CD": 1302603, "CID_NM": "Manaus", "CID_SG_UF": "AM", "CID_NU_IBG": null, "CID_GM_PON": null, "CIDADE_TP": "Capital Estadual", "lat_cid": -3.10236266, "long_cid": -60.0255074, "CD_UF": "13", "NM_UF": "Amazonas", "SIGLA_UF": "AM", "NM_REGIAO": "Norte", "AREA_KM2": 1559255.881, "Gentílico": "manauara", "Área Terr": "11401,002", "Populaçã": 2063689, "Populaç_1": 2279686 }, "geometry": { "type": "MultiPoint", "coordinates": [ [ -60.0255074129999, -3.102362664999923, 0.0 ] ] } },
{ "type": "Feature", "properties": { "CID_MUN_CD": 1302009, "CID_NM": "Itapiranga", "CID_SG_UF": "AM", "CID_NU_IBG": "130200905", "CID_GM_PON": null, "CIDADE_TP": "Interior", "lat_cid": -2.74184275, "long_cid": -58.0345458, "CD_UF": "13", "NM_UF": "Amazonas", "SIGLA_UF": "AM", "NM_REGIAO": "Norte", "AREA_KM2": 1559255.881, "Gentílico": "itapiranguense", "Área Terr": "4335,075", "Populaçã": 10162, "Populaç_1": 10805 }, "geometry": { "type": "MultiPoint", "coordinates": [ [ -58.034545883966196, -2.74184275232884, 0.0 ] ] } },
{ "type": "Feature", "properties": { "CID_MUN_CD": 1301704, "CID_NM": "Humaitá", "CID_SG_UF": "AM", "CID_NU_IBG": "130170405", "CID_GM_PON": null, "CIDADE_TP": "Interior", "lat_cid": -7.51094953, "long_cid": -63.0325412, "CD_UF": "13", "NM_UF": "Amazonas", "SIGLA_UF": "AM", "NM_REGIAO": "Norte", "AREA_KM2": 1559255.881, "Gentílico": "humaitaense", "Área Terr": "33111,129", "Populaçã": 57473, "Populaç_1": 62312 }, "geometry": { "type": "MultiPoint", "coordinates": [ [ -63.032541263952794, -7.51094953061361, 0.0 ] ] } },
{ "type": "Feature", "properties": { "CID_MUN_CD": 1300102, "CID_NM": "Anori", "CID_SG_UF": "AM", "CID_NU_IBG": "130010205", "CID_GM_PON": null, "CIDADE_TP": "Interior", "lat_cid": -3.74538559, "long_cid": -61.6589553, "CD_UF": "13", "NM_UF": "Amazonas", "SIGLA_UF": "AM", "NM_REGIAO": "Norte", "AREA_KM2": 1559255.881, "Gentílico": "anoriense", "Área Terr": "6036,019", "Populaçã": 17194, "Populaç_1": 17932 }, "geometry": { "type": "MultiPoint", "coordinates": [ [ -61.658955382877899, -3.74538558611889, 0.0 ] ] } },
{ "type": "Feature", "properties": { "CID_MUN_CD": 1303601, "CID_NM": "Santa Isabel do Rio Negro", "CID_SG_UF": "AM", "CID_NU_IBG": "130360105", "CID_GM_PON": null, "CIDADE_TP": "Interior", "lat_cid": -0.41669483, "long_cid": -65.0200226, "CD_UF": "13", "NM_UF": "Amazonas", "SIGLA_UF": "AM", "NM_REGIAO": "Norte", "AREA_KM2": 1559255.881, "Gentílico": "santa-isabelense", "Área Terr": "62803,113", "Populaçã": 14164, "Populaç_1": 14176 }, "geometry": { "type": "MultiPoint", "coordinates": [ [ -65.020022639511893, -0.416694831881863, 0.0 ] ] } },
{ "type": "Feature", "properties": { "CID_MUN_CD": 1300409, "CID_NM": "Barcelos", "CID_SG_UF": "AM", "CID_NU_IBG": "130040905", "CID_GM_PON": null, "CIDADE_TP": "Interior", "lat_cid": -0.97280105, "long_cid": -62.9256696, "CD_UF": "13", "NM_UF": "Amazonas", "SIGLA_UF": "AM", "NM_REGIAO": "Norte", "AREA_KM2": 1559255.881, "Gentílico": "barcelense", "Área Terr": "122445,039", "Populaçã": 18834, "Populaç_1": 18626 }, "geometry": { "type": "MultiPoint", "coordinates": [ [ -62.925669658102599, -0.97280105253219, 0.0 ] ] } },
{ "type": "Feature", "properties": { "CID_MUN_CD": 1302801, "CID_NM": "Maraã", "CID_SG_UF": "AM", "CID_NU_IBG": "130280105", "CID_GM_PON": null, "CIDADE_TP": "Interior", "lat_cid": -1.86643688, "long_cid": -65.5742837, "CD_UF": "13", "NM_UF": "Amazonas", "SIGLA_UF": "AM", "NM_REGIAO": "Norte", "AREA_KM2": 1559255.881, "Gentílico": "maraãense", "Área Terr": "16830,826", "Populaçã": 15529, "Populaç_1": 15843 }, "geometry": { "type": "MultiPoint", "coordinates": [ [ -65.574283703163999, -1.86643687730125, 0.0 ] ] } },
{ "type": "Feature", "properties": { "CID_MUN_CD": 1304260, "CID_NM": "Uarini", "CID_SG_UF": "AM", "CID_NU_IBG": "130426005", "CID_GM_PON": null, "CIDADE_TP": "Interior", "lat_cid": -3.00034914, "long_cid": -65.1880142, "CD_UF": "13", "NM_UF": "Amazonas", "SIGLA_UF": "AM", "NM_REGIAO": "Norte", "AREA_KM2": 1559255.881, "Gentílico": "uarinense", "Área Terr": "10275,559", "Populaçã": 14431, "Populaç_1": 15278 }, "geometry": { "type": "MultiPoint", "coordinates": [ [ -65.188014242933292, -3.0003491403792, 0.0 ] ] } },
{ "type": "Feature", "properties": { "CID_MUN_CD": 1300029, "CID_NM": "Alvarães", "CID_SG_UF": "AM", "CID_NU_IBG": "130002905", "CID_GM_PON": null, "CIDADE_TP": "Interior", "lat_cid": -3.21658377, "long_cid": -64.8135346, "CD_UF": "13", "NM_UF": "Amazonas", "SIGLA_UF": "AM", "NM_REGIAO": "Norte", "AREA_KM2": 1559255.881, "Gentílico": "alvarãense", "Área Terr": "5922,884", "Populaçã": 15866, "Populaç_1": 16670 }, "geometry": { "type": "MultiPoint", "coordinates": [ [ -64.813534677568583, -3.21658376906638, 0.0 ] ] } },
{ "type": "Feature", "properties": { "CID_MUN_CD": 1304203, "CID_NM": "Tefé", "CID_SG_UF": "AM", "CID_NU_IBG": "130420305", "CID_GM_PON": null, "CIDADE_TP": "Interior", "lat_cid": -3.34837249, "long_cid": -64.7084196, "CD_UF": "13", "NM_UF": "Amazonas", "SIGLA_UF": "AM", "NM_REGIAO": "Norte", "AREA_KM2": 1559255.881, "Gentílico": "tefeense", "Área Terr": "23692,621", "Populaçã": 73669, "Populaç_1": 79278 }, "geometry": { "type": "MultiPoint", "coordinates": [ [ -64.708419663302593, -3.3483724939415, 0.0 ] ] } },
{ "type": "Feature", "properties": { "CID_MUN_CD": 1303205, "CID_NM": "Novo Airão", "CID_SG_UF": "AM", "CID_NU_IBG": "130320505", "CID_GM_PON": null, "CIDADE_TP": "Interior", "lat_cid": -2.62343246, "long_cid": -60.9488107, "CD_UF": "13", "NM_UF": "Amazonas", "SIGLA_UF": "AM", "NM_REGIAO": "Norte", "AREA_KM2": 1559255.881, "Gentílico": "novo-airãoense", "Área Terr": "37776,664", "Populaçã": 15761, "Populaç_1": 16467 }, "geometry": { "type": "MultiPoint", "coordinates": [ [ -60.948810707829004, -2.62343245902762, 0.0 ] ] } },
{ "type": "Feature", "properties": { "CID_MUN_CD": 1300839, "CID_NM": "Caapiranga", "CID_SG_UF": "AM", "CID_NU_IBG": "130083905", "CID_GM_PON": null, "CIDADE_TP": "Interior", "lat_cid": -3.33009339, "long_cid": -61.2113341, "CD_UF": "13", "NM_UF": "Amazonas", "SIGLA_UF": "AM", "NM_REGIAO": "Norte", "AREA_KM2": 1559255.881, "Gentílico": "caapiranguense", "Área Terr": "9455,539", "Populaçã": 13469, "Populaç_1": 14310 }, "geometry": { "type": "MultiPoint", "coordinates": [ [ -61.211334133181595, -3.3300933919416, 0.0 ] ] } },
{ "type": "Feature", "properties": { "CID_MUN_CD": 1300086, "CID_NM": "Anamã", "CID_SG_UF": "AM", "CID_NU_IBG": "130008605", "CID_GM_PON": null, "CIDADE_TP": "Interior", "lat_cid": -3.57637043, "long_cid": -61.4059034, "CD_UF": "13", "NM_UF": "Amazonas", "SIGLA_UF": "AM", "NM_REGIAO": "Norte", "AREA_KM2": 1559255.881, "Gentílico": "anamãense", "Área Terr": "2446,121", "Populaçã": 9962, "Populaç_1": 10318 }, "geometry": { "type": "MultiPoint", "coordinates": [ [ -61.405903479750094, -3.57637042689027, 0.0 ] ] } },
{ "type": "Feature", "properties": { "CID_MUN_CD": 1301308, "CID_NM": "Codajás", "CID_SG_UF": "AM", "CID_NU_IBG": "130130805", "CID_GM_PON": null, "CIDADE_TP": "Interior", "lat_cid": -3.84304593, "long_cid": -62.0634296, "CD_UF": "13", "NM_UF": "Amazonas", "SIGLA_UF": "AM", "NM_REGIAO": "Norte", "AREA_KM2": 1559255.881, "Gentílico": "codajaense", "Área Terr": "18701,074", "Populaçã": 23549, "Populaç_1": 24451 }, "geometry": { "type": "MultiPoint", "coordinates": [ [ -62.063429660488296, -3.84304593273892, 0.0 ] ] } },
{ "type": "Feature", "properties": { "CID_MUN_CD": 1302504, "CID_NM": "Manacapuru", "CID_SG_UF": "AM", "CID_NU_IBG": "130250405", "CID_GM_PON": null, "CIDADE_TP": "Interior", "lat_cid": -3.29827804, "long_cid": -60.6205894, "CD_UF": "13", "NM_UF": "Amazonas", "SIGLA_UF": "AM", "NM_REGIAO": "Norte", "AREA_KM2": 1559255.881, "Gentílico": "manacapuruense", "Área Terr": "7336,578", "Populaçã": 101883, "Populaç_1": 110691 }, "geometry": { "type": "MultiPoint", "coordinates": [ [ -60.620589445870593, -3.29827803546755, 0.0 ] ] } },
{ "type": "Feature", "properties": { "CID_MUN_CD": 1301852, "CID_NM": "Iranduba", "CID_SG_UF": "AM", "CID_NU_IBG": "130185205", "CID_GM_PON": null, "CIDADE_TP": "Interior", "lat_cid": -3.28105388, "long_cid": -60.1933881, "CD_UF": "13", "NM_UF": "Amazonas", "SIGLA_UF": "AM", "NM_REGIAO": "Norte", "AREA_KM2": 1559255.881, "Gentílico": "irandubense", "Área Terr": "2216,817", "Populaçã": 61163, "Populaç_1": 67114 }, "geometry": { "type": "MultiPoint", "coordinates": [ [ -60.193388166130696, -3.28105387760689, 0.0 ] ] } },
{ "type": "Feature", "properties": { "CID_MUN_CD": 1301100, "CID_NM": "Careiro", "CID_SG_UF": "AM", "CID_NU_IBG": "130110005", "CID_GM_PON": null, "CIDADE_TP": "Interior", "lat_cid": -3.82244727, "long_cid": -60.3638098, "CD_UF": "13", "NM_UF": "Amazonas", "SIGLA_UF": "AM", "NM_REGIAO": "Norte", "AREA_KM2": 1559255.881, "Gentílico": "careirense", "Área Terr": "6096,212", "Populaçã": 30792, "Populaç_1": 32442 }, "geometry": { "type": "MultiPoint", "coordinates": [ [ -60.363809843708893, -3.82244727004599, 0.0 ] ] } },
{ "type": "Feature", "properties": { "CID_MUN_CD": 1302553, "CID_NM": "Manaquiri", "CID_SG_UF": "AM", "CID_NU_IBG": "130255305", "CID_GM_PON": null, "CIDADE_TP": "Interior", "lat_cid": -3.42907967, "long_cid": -60.4588813, "CD_UF": "13", "NM_UF": "Amazonas", "SIGLA_UF": "AM", "NM_REGIAO": "Norte", "AREA_KM2": 1559255.881, "Gentílico": "manaquirense", "Área Terr": "3973,258", "Populaçã": 17107, "Populaç_1": 17009 }, "geometry": { "type": "MultiPoint", "coordinates": [ [ -60.458881306374501, -3.42907966935262, 0.0 ] ] } },
{ "type": "Feature", "properties": { "CID_MUN_CD": 1300631, "CID_NM": "Beruri", "CID_SG_UF": "AM", "CID_NU_IBG": "130063105", "CID_GM_PON": null, "CIDADE_TP": "Interior", "lat_cid": -3.89451341, "long_cid": -61.3715708, "CD_UF": "13", "NM_UF": "Amazonas", "SIGLA_UF": "AM", "NM_REGIAO": "Norte", "AREA_KM2": 1559255.881, "Gentílico": "beruriense", "Área Terr": "17472,78", "Populaçã": 20718, "Populaç_1": 22136 }, "geometry": { "type": "MultiPoint", "coordinates": [ [ -61.371570891665797, -3.89451340981805, 0.0 ] ] } },
{ "type": "Feature", "properties": { "CID_MUN_CD": 1303536, "CID_NM": "Presidente Figueiredo", "CID_SG_UF": "AM", "CID_NU_IBG": "130353605", "CID_GM_PON": null, "CIDADE_TP": "Interior", "lat_cid": -2.05842909, "long_cid": -60.0256468, "CD_UF": "13", "NM_UF": "Amazonas", "SIGLA_UF": "AM", "NM_REGIAO": "Norte", "AREA_KM2": 1559255.881, "Gentílico": "figueiredense", "Área Terr": "25459,099", "Populaçã": 30668, "Populaç_1": 33004 }, "geometry": { "type": "MultiPoint", "coordinates": [ [ -60.025646834467395, -2.058429085233, 0.0 ] ] } },
{ "type": "Feature", "properties": { "CID_MUN_CD": 1303007, "CID_NM": "Nhamundá", "CID_SG_UF": "AM", "CID_NU_IBG": "130300705", "CID_GM_PON": null, "CIDADE_TP": "Interior", "lat_cid": -2.18898377, "long_cid": -56.7167699, "CD_UF": "13", "NM_UF": "Amazonas", "SIGLA_UF": "AM", "NM_REGIAO": "Norte", "AREA_KM2": 1559255.881, "Gentílico": "nhamundaense", "Área Terr": "14107,501", "Populaçã": 20136, "Populaç_1": 21106 }, "geometry": { "type": "MultiPoint", "coordinates": [ [ -56.7167699133376, -2.1889837668969, 0.0 ] ] } },
{ "type": "Feature", "properties": { "CID_MUN_CD": 1303569, "CID_NM": "Rio Preto da Eva", "CID_SG_UF": "AM", "CID_NU_IBG": "130356905", "CID_GM_PON": null, "CIDADE_TP": "Interior", "lat_cid": -2.69330154, "long_cid": -59.704738, "CD_UF": "13", "NM_UF": "Amazonas", "SIGLA_UF": "AM", "NM_REGIAO": "Norte", "AREA_KM2": 1559255.881, "Gentílico": "rio-pretense", "Área Terr": "5815,622", "Populaçã": 24936, "Populaç_1": 25723 }, "geometry": { "type": "MultiPoint", "coordinates": [ [ -59.704738094199001, -2.69330154164509, 0.0 ] ] } },
{ "type": "Feature", "properties": { "CID_MUN_CD": 1304005, "CID_NM": "Silves", "CID_SG_UF": "AM", "CID_NU_IBG": "130400505", "CID_GM_PON": null, "CIDADE_TP": "Interior", "lat_cid": -2.83642743, "long_cid": -58.2148008, "CD_UF": "13", "NM_UF": "Amazonas", "SIGLA_UF": "AM", "NM_REGIAO": "Norte", "AREA_KM2": 1559255.881, "Gentílico": "silvense", "Área Terr": "3723,382", "Populaçã": 11559, "Populaç_1": 12404 }, "geometry": { "type": "MultiPoint", "coordinates": [ [ -58.214800860826898, -2.83642742966583, 0.0 ] ] } },
{ "type": "Feature", "properties": { "CID_MUN_CD": 1303957, "CID_NM": "São Sebastião do Uatumã", "CID_SG_UF": "AM", "CID_NU_IBG": "130395705", "CID_GM_PON": null, "CIDADE_TP": "Interior", "lat_cid": -2.56837612, "long_cid": -57.8729303, "CD_UF": "13", "NM_UF": "Amazonas", "SIGLA_UF": "AM", "NM_REGIAO": "Norte", "AREA_KM2": 1559255.881, "Gentílico": "uatumaense", "Área Terr": "10647,463", "Populaçã": 11670, "Populaç_1": 12247 }, "geometry": { "type": "MultiPoint", "coordinates": [ [ -57.872930304039151, -2.568376115287218, 0.0 ] ] } },
{ "type": "Feature", "properties": { "CID_MUN_CD": 1304401, "CID_NM": "Urucurituba", "CID_SG_UF": "AM", "CID_NU_IBG": "130440105", "CID_GM_PON": null, "CIDADE_TP": "Interior", "lat_cid": -3.13463312, "long_cid": -58.159641, "CD_UF": "13", "NM_UF": "Amazonas", "SIGLA_UF": "AM", "NM_REGIAO": "Norte", "AREA_KM2": 1559255.881, "Gentílico": "urucuritubense", "Área Terr": "2863,889", "Populaçã": 23945, "Populaç_1": 25592 }, "geometry": { "type": "MultiPoint", "coordinates": [ [ -58.159641041309797, -3.1346331156473, 0.0 ] ] } },
{ "type": "Feature", "properties": { "CID_MUN_CD": 1300680, "CID_NM": "Boa Vista do Ramos", "CID_SG_UF": "AM", "CID_NU_IBG": "130068005", "CID_GM_PON": null, "CIDADE_TP": "Interior", "lat_cid": -2.97172653, "long_cid": -57.5877073, "CD_UF": "13", "NM_UF": "Amazonas", "SIGLA_UF": "AM", "NM_REGIAO": "Norte", "AREA_KM2": 1559255.881, "Gentílico": "boa-vistense", "Área Terr": "2589,407", "Populaçã": 23785, "Populaç_1": 25769 }, "geometry": { "type": "MultiPoint", "coordinates": [ [ -57.587707346473692, -2.97172653158935, 0.0 ] ] } },
{ "type": "Feature", "properties": { "CID_MUN_CD": 1300508, "CID_NM": "Barreirinha", "CID_SG_UF": "AM", "CID_NU_IBG": "130050805", "CID_GM_PON": null, "CIDADE_TP": "Interior", "lat_cid": -2.79814984, "long_cid": -57.0677504, "CD_UF": "13", "NM_UF": "Amazonas", "SIGLA_UF": "AM", "NM_REGIAO": "Norte", "AREA_KM2": 1559255.881, "Gentílico": "barreirinhense", "Área Terr": "5751,765", "Populaçã": 31051, "Populaç_1": 33436 }, "geometry": { "type": "MultiPoint", "coordinates": [ [ -57.067750489893797, -2.79814983692979, 0.0 ] ] } },
{ "type": "Feature", "properties": { "CID_MUN_CD": 1301159, "CID_NM": "Careiro da Várzea", "CID_SG_UF": "AM", "CID_NU_IBG": "130115905", "CID_GM_PON": null, "CIDADE_TP": "Interior", "lat_cid": -3.19739659, "long_cid": -59.826314, "CD_UF": "13", "NM_UF": "Amazonas", "SIGLA_UF": "AM", "NM_REGIAO": "Norte", "AREA_KM2": 1559255.881, "Gentílico": "careirense-da-várzea", "Área Terr": "2627,474", "Populaçã": 19637, "Populaç_1": 19809 }, "geometry": { "type": "MultiPoint", "coordinates": [ [ -59.826314060833795, -3.19739659486959, 0.0 ] ] } },
{ "type": "Feature", "properties": { "CID_MUN_CD": 1300300, "CID_NM": "Autazes", "CID_SG_UF": "AM", "CID_NU_IBG": "130030005", "CID_GM_PON": null, "CIDADE_TP": "Interior", "lat_cid": -3.57866364, "long_cid": -59.133567, "CD_UF": "13", "NM_UF": "Amazonas", "SIGLA_UF": "AM", "NM_REGIAO": "Norte", "AREA_KM2": 1559255.881, "Gentílico": "autazense", "Área Terr": "7652,852", "Populaçã": 41564, "Populaç_1": 45328 }, "geometry": { "type": "MultiPoint", "coordinates": [ [ -59.133567091816701, -3.57866364177126, 0.0 ] ] } },
{ "type": "Feature", "properties": { "CID_MUN_CD": 1303106, "CID_NM": "Nova Olinda do Norte", "CID_SG_UF": "AM", "CID_NU_IBG": "130310605", "CID_GM_PON": null, "CIDADE_TP": "Interior", "lat_cid": -3.88759283, "long_cid": -59.093074, "CD_UF": "13", "NM_UF": "Amazonas", "SIGLA_UF": "AM", "NM_REGIAO": "Norte", "AREA_KM2": 1559255.881, "Gentílico": "olindense", "Área Terr": "5578,132", "Populaçã": 27062, "Populaç_1": 28267 }, "geometry": { "type": "MultiPoint", "coordinates": [ [ -59.093074026043297, -3.887592831911379, 0.0 ] ] } },
{ "type": "Feature", "properties": { "CID_MUN_CD": 1302900, "CID_NM": "Maués", "CID_SG_UF": "AM", "CID_NU_IBG": "130290005", "CID_GM_PON": null, "CIDADE_TP": "Interior", "lat_cid": -3.38642793, "long_cid": -57.7150343, "CD_UF": "13", "NM_UF": "Amazonas", "SIGLA_UF": "AM", "NM_REGIAO": "Norte", "AREA_KM2": 1559255.881, "Gentílico": "maueense", "Área Terr": "39991,067", "Populaçã": 61204, "Populaç_1": 65714 }, "geometry": { "type": "MultiPoint", "coordinates": [ [ -57.715034386752393, -3.38642792621105, 0.0 ] ] } },
{ "type": "Feature", "properties": { "CID_MUN_CD": 1300805, "CID_NM": "Borba", "CID_SG_UF": "AM", "CID_NU_IBG": "130080505", "CID_GM_PON": null, "CIDADE_TP": "Interior", "lat_cid": -4.38564938, "long_cid": -59.5947716, "CD_UF": "13", "NM_UF": "Amazonas", "SIGLA_UF": "AM", "NM_REGIAO": "Norte", "AREA_KM2": 1559255.881, "Gentílico": "borbense", "Área Terr": "44236,184", "Populaçã": 33080, "Populaç_1": 34879 }, "geometry": { "type": "MultiPoint", "coordinates": [ [ -59.594771606999892, -4.38564937999996, 0.0 ] ] } },
{ "type": "Feature", "properties": { "CID_MUN_CD": 1304062, "CID_NM": "Tabatinga", "CID_SG_UF": "AM", "CID_NU_IBG": "130406205", "CID_GM_PON": null, "CIDADE_TP": "Interior", "lat_cid": -4.23188368, "long_cid": -69.9462443, "CD_UF": "13", "NM_UF": "Amazonas", "SIGLA_UF": "AM", "NM_REGIAO": "Norte", "AREA_KM2": 1559255.881, "Gentílico": "tabatinguense", "Área Terr": "3259,543", "Populaçã": 66764, "Populaç_1": 72283 }, "geometry": { "type": "MultiPoint", "coordinates": [ [ -69.946244375227096, -4.23188367564664, 0.0 ] ] } },
{ "type": "Feature", "properties": { "CID_MUN_CD": 1302306, "CID_NM": "Jutaí", "CID_SG_UF": "AM", "CID_NU_IBG": "130230605", "CID_GM_PON": null, "CIDADE_TP": "Interior", "lat_cid": -2.74901722, "long_cid": -66.7696311, "CD_UF": "13", "NM_UF": "Amazonas", "SIGLA_UF": "AM", "NM_REGIAO": "Norte", "AREA_KM2": 1559255.881, "Gentílico": "jutaiense", "Área Terr": "69459,501", "Populaçã": 25172, "Populaç_1": 27656 }, "geometry": { "type": "MultiPoint", "coordinates": [ [ -66.76963111111111, -2.74901722222222, 0.0 ] ] } },
{ "type": "Feature", "properties": { "CID_MUN_CD": 1300144, "CID_NM": "Apuí", "CID_SG_UF": "AM", "CID_NU_IBG": "130014405", "CID_GM_PON": null, "CIDADE_TP": "Interior", "lat_cid": -7.18930933, "long_cid": -59.8781185, "CD_UF": "13", "NM_UF": "Amazonas", "SIGLA_UF": "AM", "NM_REGIAO": "Norte", "AREA_KM2": 1559255.881, "Gentílico": "apuiense", "Área Terr": "54240,544", "Populaçã": 20647, "Populaç_1": 21735 }, "geometry": { "type": "MultiPoint", "coordinates": [ [ -59.878118561, -7.18930932699993, 0.0 ] ] } },
{ "type": "Feature", "properties": { "CID_MUN_CD": 1301902, "CID_NM": "Itacoatiara", "CID_SG_UF": "AM", "CID_NU_IBG": "130190205", "CID_GM_PON": null, "CIDADE_TP": "Interior", "lat_cid": -3.1403788, "long_cid": -58.4401754, "CD_UF": "13", "NM_UF": "Amazonas", "SIGLA_UF": "AM", "NM_REGIAO": "Norte", "AREA_KM2": 1559255.881, "Gentílico": "itacoatiarense", "Área Terr": "8891,979", "Populaçã": 103598, "Populaç_1": 112520 }, "geometry": { "type": "MultiPoint", "coordinates": [ [ -58.440175436757094, -3.14037880391634, 0.0 ] ] } },
{ "type": "Feature", "properties": { "CID_MUN_CD": 1303403, "CID_NM": "Parintins", "CID_SG_UF": "AM", "CID_NU_IBG": "130340305", "CID_GM_PON": null, "CIDADE_TP": "Interior", "lat_cid": -2.62705259, "long_cid": -56.7362921, "CD_UF": "13", "NM_UF": "Amazonas", "SIGLA_UF": "AM", "NM_REGIAO": "Norte", "AREA_KM2": 1559255.881, "Gentílico": "parintinense", "Área Terr": "5956,048", "Populaçã": 96372, "Populaç_1": 101956 }, "geometry": { "type": "MultiPoint", "coordinates": [ [ -56.736292145195101, -2.62705258583722, 0.0 ] ] } },
{ "type": "Feature", "properties": { "CID_MUN_CD": 1304302, "CID_NM": "Urucará", "CID_SG_UF": "AM", "CID_NU_IBG": "130430205", "CID_GM_PON": null, "CIDADE_TP": "Interior", "lat_cid": -2.53475322, "long_cid": -57.7588924, "CD_UF": "13", "NM_UF": "Amazonas", "SIGLA_UF": "AM", "NM_REGIAO": "Norte", "AREA_KM2": 1559255.881, "Gentílico": "urucaraense", "Área Terr": "27924,574", "Populaçã": 18631, "Populaç_1": 19505 }, "geometry": { "type": "MultiPoint", "coordinates": [ [ -57.758892405495551, -2.534753223667338, 0.0 ] ] } },
{ "type": "Feature", "properties": { "CID_MUN_CD": 1301951, "CID_NM": "Itamarati", "CID_SG_UF": "AM", "CID_NU_IBG": "130195105", "CID_GM_PON": null, "CIDADE_TP": "Interior", "lat_cid": -6.42899111, "long_cid": -68.2529872, "CD_UF": "13", "NM_UF": "Amazonas", "SIGLA_UF": "AM", "NM_REGIAO": "Norte", "AREA_KM2": 1559255.881, "Gentílico": "itamaratiense", "Área Terr": "25260,429", "Populaçã": 10937, "Populaç_1": 11730 }, "geometry": { "type": "MultiPoint", "coordinates": [ [ -68.252987222222188, -6.42899111111109, 0.0 ] ] } },
{ "type": "Feature", "properties": { "CID_MUN_CD": 1301209, "CID_NM": "Coari", "CID_SG_UF": "AM", "CID_NU_IBG": "130120905", "CID_GM_PON": null, "CIDADE_TP": "Interior", "lat_cid": -4.08664333, "long_cid": -63.1356472, "CD_UF": "13", "NM_UF": "Amazonas", "SIGLA_UF": "AM", "NM_REGIAO": "Norte", "AREA_KM2": 1559255.881, "Gentílico": "coariense", "Área Terr": "57970,785", "Populaçã": 70616, "Populaç_1": 73820 }, "geometry": { "type": "MultiPoint", "coordinates": [ [ -63.135647222222197, -4.08664333333331, 0.0 ] ] } },
{ "type": "Feature", "properties": { "CID_MUN_CD": 1301654, "CID_NM": "Guajará", "CID_SG_UF": "AM", "CID_NU_IBG": "130165405", "CID_GM_PON": null, "CIDADE_TP": "Interior", "lat_cid": -7.54980944, "long_cid": -72.5881138, "CD_UF": "13", "NM_UF": "Amazonas", "SIGLA_UF": "AM", "NM_REGIAO": "Norte", "AREA_KM2": 1559255.881, "Gentílico": "guajaraense", "Área Terr": "7583,534", "Populaçã": 13815, "Populaç_1": 14332 }, "geometry": { "type": "MultiPoint", "coordinates": [ [ -72.588113888888898, -7.54980944444441, 0.0 ] ] } },
{ "type": "Feature", "properties": { "CID_MUN_CD": 1301001, "CID_NM": "Carauari", "CID_SG_UF": "AM", "CID_NU_IBG": "130100105", "CID_GM_PON": null, "CIDADE_TP": "Interior", "lat_cid": -4.88259611, "long_cid": -66.8991311, "CD_UF": "13", "NM_UF": "Amazonas", "SIGLA_UF": "AM", "NM_REGIAO": "Norte", "AREA_KM2": 1559255.881, "Gentílico": "carauariense", "Área Terr": "25778,658", "Populaçã": 28742, "Populaç_1": 30892 }, "geometry": { "type": "MultiPoint", "coordinates": [ [ -66.899131111111103, -4.88259611111113, 0.0 ] ] } },
{ "type": "Feature", "properties": { "CID_MUN_CD": 1302207, "CID_NM": "Juruá", "CID_SG_UF": "AM", "CID_NU_IBG": "130220705", "CID_GM_PON": null, "CIDADE_TP": "Interior", "lat_cid": -3.47828222, "long_cid": -66.0697961, "CD_UF": "13", "NM_UF": "Amazonas", "SIGLA_UF": "AM", "NM_REGIAO": "Norte", "AREA_KM2": 1559255.881, "Gentílico": "juruaense", "Área Terr": "19438,805", "Populaçã": 10742, "Populaç_1": 11152 }, "geometry": { "type": "MultiPoint", "coordinates": [ [ -66.069796111111103, -3.47828222222222, 0.0 ] ] } },
{ "type": "Feature", "properties": { "CID_MUN_CD": 1301407, "CID_NM": "Eirunepé", "CID_SG_UF": "AM", "CID_NU_IBG": "130140705", "CID_GM_PON": null, "CIDADE_TP": "Interior", "lat_cid": -6.66255444, "long_cid": -69.8708122, "CD_UF": "13", "NM_UF": "Amazonas", "SIGLA_UF": "AM", "NM_REGIAO": "Norte", "AREA_KM2": 1559255.881, "Gentílico": "eirunepeense", "Área Terr": "14966,241", "Populaçã": 33170, "Populaç_1": 35534 }, "geometry": { "type": "MultiPoint", "coordinates": [ [ -69.870812222222199, -6.66255444444442, 0.0 ] ] } },
{ "type": "Feature", "properties": { "CID_MUN_CD": 1304237, "CID_NM": "Tonantins", "CID_SG_UF": "AM", "CID_NU_IBG": "130423705", "CID_GM_PON": null, "CIDADE_TP": "Interior", "lat_cid": -2.87327833, "long_cid": -67.8052322, "CD_UF": "13", "NM_UF": "Amazonas", "SIGLA_UF": "AM", "NM_REGIAO": "Norte", "AREA_KM2": 1559255.881, "Gentílico": "tonantinense", "Área Terr": "6447,227", "Populaçã": 19247, "Populaç_1": 20224 }, "geometry": { "type": "MultiPoint", "coordinates": [ [ -67.805232222222202, -2.8732783333333, 0.0 ] ] } },
{ "type": "Feature", "properties": { "CID_MUN_CD": 1303304, "CID_NM": "Novo Aripuanã", "CID_SG_UF": "AM", "CID_NU_IBG": "130330405", "CID_GM_PON": null, "CIDADE_TP": "Interior", "lat_cid": -5.12376889, "long_cid": -60.375525, "CD_UF": "13", "NM_UF": "Amazonas", "SIGLA_UF": "AM", "NM_REGIAO": "Norte", "AREA_KM2": 1559255.881, "Gentílico": "novo-aripuanaense", "Área Terr": "41179,656", "Populaçã": 23818, "Populaç_1": 24987 }, "geometry": { "type": "MultiPoint", "coordinates": [ [ -60.375525, -5.12376888888889, 0.0 ] ] } },
{ "type": "Feature", "properties": { "CID_MUN_CD": 1304104, "CID_NM": "Tapauá", "CID_SG_UF": "AM", "CID_NU_IBG": "130410405", "CID_GM_PON": null, "CIDADE_TP": "Interior", "lat_cid": -5.62983444, "long_cid": -63.1822133, "CD_UF": "13", "NM_UF": "Amazonas", "SIGLA_UF": "AM", "NM_REGIAO": "Norte", "AREA_KM2": 1559255.881, "Gentílico": "tapauense", "Área Terr": "84946,035", "Populaçã": 19599, "Populaç_1": 20501 }, "geometry": { "type": "MultiPoint", "coordinates": [ [ -63.182213333333294, -5.62983444444444, 0.0 ] ] } },
{ "type": "Feature", "properties": { "CID_MUN_CD": 1300607, "CID_NM": "Benjamin Constant", "CID_SG_UF": "AM", "CID_NU_IBG": "130060705", "CID_GM_PON": null, "CIDADE_TP": "Interior", "lat_cid": -4.37592389, "long_cid": -70.0307527, "CD_UF": "13", "NM_UF": "Amazonas", "SIGLA_UF": "AM", "NM_REGIAO": "Norte", "AREA_KM2": 1559255.881, "Gentílico": "benjamin-constantense", "Área Terr": "8692,751", "Populaçã": 37648, "Populaç_1": 40509 }, "geometry": { "type": "MultiPoint", "coordinates": [ [ -70.030752777777792, -4.37592388888891, 0.0 ] ] } },
{ "type": "Feature", "properties": { "CID_MUN_CD": 1301506, "CID_NM": "Envira", "CID_SG_UF": "AM", "CID_NU_IBG": "130150605", "CID_GM_PON": null, "CIDADE_TP": "Interior", "lat_cid": -7.43216889, "long_cid": -70.0234644, "CD_UF": "13", "NM_UF": "Amazonas", "SIGLA_UF": "AM", "NM_REGIAO": "Norte", "AREA_KM2": 1559255.881, "Gentílico": "envirense", "Área Terr": "7505,794", "Populaçã": 17186, "Populaç_1": 17920 }, "geometry": { "type": "MultiPoint", "coordinates": [ [ -70.023464444444386, -7.4321688888889, 0.0 ] ] } },
{ "type": "Feature", "properties": { "CID_MUN_CD": 1303502, "CID_NM": "Pauini", "CID_SG_UF": "AM", "CID_NU_IBG": "130350205", "CID_GM_PON": null, "CIDADE_TP": "Interior", "lat_cid": -7.71424278, "long_cid": -67.0014416, "CD_UF": "13", "NM_UF": "Amazonas", "SIGLA_UF": "AM", "NM_REGIAO": "Norte", "AREA_KM2": 1559255.881, "Gentílico": "pauiniense", "Área Terr": "41624,664", "Populaçã": 19373, "Populaç_1": 20232 }, "geometry": { "type": "MultiPoint", "coordinates": [ [ -67.001441666666693, -7.71424277777777, 0.0 ] ] } },
{ "type": "Feature", "properties": { "CID_MUN_CD": 1303700, "CID_NM": "Santo Antônio do Içá", "CID_SG_UF": "AM", "CID_NU_IBG": "130370005", "CID_GM_PON": null, "CIDADE_TP": "Interior", "lat_cid": -3.10316222, "long_cid": -67.946205, "CD_UF": "13", "NM_UF": "Amazonas", "SIGLA_UF": "AM", "NM_REGIAO": "Norte", "AREA_KM2": 1559255.881, "Gentílico": "santoense", "Área Terr": "12382,38", "Populaçã": 28211, "Populaç_1": 30448 }, "geometry": { "type": "MultiPoint", "coordinates": [ [ -67.946205, -3.10316222222224, 0.0 ] ] } },
{ "type": "Feature", "properties": { "CID_MUN_CD": 1303908, "CID_NM": "São Paulo de Olivença", "CID_SG_UF": "AM", "CID_NU_IBG": "130390805", "CID_GM_PON": null, "CIDADE_TP": "Interior", "lat_cid": -3.46191444, "long_cid": -68.9510583, "CD_UF": "13", "NM_UF": "Amazonas", "SIGLA_UF": "AM", "NM_REGIAO": "Norte", "AREA_KM2": 1559255.881, "Gentílico": "paulivense", "Área Terr": "19658,536", "Populaçã": 32967, "Populaç_1": 35196 }, "geometry": { "type": "MultiPoint", "coordinates": [ [ -68.951058333333307, -3.46191444444446, 0.0 ] ] } },
{ "type": "Feature", "properties": { "CID_MUN_CD": 1301803, "CID_NM": "Ipixuna", "CID_SG_UF": "AM", "CID_NU_IBG": "130180305", "CID_GM_PON": null, "CIDADE_TP": "Interior", "lat_cid": -7.05099944, "long_cid": -71.6895916, "CD_UF": "13", "NM_UF": "Amazonas", "SIGLA_UF": "AM", "NM_REGIAO": "Norte", "AREA_KM2": 1559255.881, "Gentílico": "ipixunense", "Área Terr": "12109,779", "Populaçã": 24311, "Populaç_1": 25458 }, "geometry": { "type": "MultiPoint", "coordinates": [ [ -71.689591666666587, -7.05099944444441, 0.0 ] ] } },
{ "type": "Feature", "properties": { "CID_MUN_CD": 1300201, "CID_NM": "Atalaia do Norte", "CID_SG_UF": "AM", "CID_NU_IBG": "130020105", "CID_GM_PON": null, "CIDADE_TP": "Interior", "lat_cid": -4.36783056, "long_cid": -70.1911505, "CD_UF": "13", "NM_UF": "Amazonas", "SIGLA_UF": "AM", "NM_REGIAO": "Norte", "AREA_KM2": 1559255.881, "Gentílico": "atalaiense", "Área Terr": "76504,215", "Populaçã": 15314, "Populaç_1": 15892 }, "geometry": { "type": "MultiPoint", "coordinates": [ [ -70.191150555555495, -4.36783055555554, 0.0 ] ] } },
{ "type": "Feature", "properties": { "CID_MUN_CD": 1302405, "CID_NM": "Lábrea", "CID_SG_UF": "AM", "CID_NU_IBG": "130240505", "CID_GM_PON": null, "CIDADE_TP": "Interior", "lat_cid": -7.260415, "long_cid": -64.7966327, "CD_UF": "13", "NM_UF": "Amazonas", "SIGLA_UF": "AM", "NM_REGIAO": "Norte", "AREA_KM2": 1559255.881, "Gentílico": "labrense", "Área Terr": "68262,68", "Populaçã": 45448, "Populaç_1": 48927 }, "geometry": { "type": "MultiPoint", "coordinates": [ [ -64.796632777777702, -7.260415, 0.0 ] ] } },
{ "type": "Feature", "properties": { "CID_MUN_CD": 1302108, "CID_NM": "Japurá", "CID_SG_UF": "AM", "CID_NU_IBG": "130210805", "CID_GM_PON": null, "CIDADE_TP": "Interior", "lat_cid": -1.88874, "long_cid": -66.9423455, "CD_UF": "13", "NM_UF": "Amazonas", "SIGLA_UF": "AM", "NM_REGIAO": "Norte", "AREA_KM2": 1559255.881, "Gentílico": "japuraense", "Área Terr": "55770,475", "Populaçã": 8858, "Populaç_1": 9397 }, "geometry": { "type": "MultiPoint", "coordinates": [ [ -66.942345555555505, -1.88874, 0.0 ] ] } },
{ "type": "Feature", "properties": { "CID_MUN_CD": 1300706, "CID_NM": "Boca do Acre", "CID_SG_UF": "AM", "CID_NU_IBG": "130070605", "CID_GM_PON": null, "CIDADE_TP": "Interior", "lat_cid": -8.74646111, "long_cid": -67.3975344, "CD_UF": "13", "NM_UF": "Amazonas", "SIGLA_UF": "AM", "NM_REGIAO": "Norte", "AREA_KM2": 1559255.881, "Gentílico": "bocacrense", "Área Terr": "21938,583", "Populaçã": 35447, "Populaç_1": 38246 }, "geometry": { "type": "MultiPoint", "coordinates": [ [ -67.397534444444389, -8.746461111111101, 0.0 ] ] } },
{ "type": "Feature", "properties": { "CID_MUN_CD": 1303809, "CID_NM": "São Gabriel da Cachoeira", "CID_SG_UF": "AM", "CID_NU_IBG": "130380905", "CID_GM_PON": null, "CIDADE_TP": "Interior", "lat_cid": -0.13018667, "long_cid": -67.0879088, "CD_UF": "13", "NM_UF": "Amazonas", "SIGLA_UF": "AM", "NM_REGIAO": "Norte", "AREA_KM2": 1559255.881, "Gentílico": "são-gabrielense", "Área Terr": "108712,655", "Populaçã": 51795, "Populaç_1": 56406 }, "geometry": { "type": "MultiPoint", "coordinates": [ [ -67.087908888888904, -0.130186666666646, 0.0 ] ] } },
{ "type": "Feature", "properties": { "CID_MUN_CD": 1301605, "CID_NM": "Fonte Boa", "CID_SG_UF": "AM", "CID_NU_IBG": "130160505", "CID_GM_PON": null, "CIDADE_TP": "Interior", "lat_cid": -2.51591944, "long_cid": -66.0903555, "CD_UF": "13", "NM_UF": "Amazonas", "SIGLA_UF": "AM", "NM_REGIAO": "Norte", "AREA_KM2": 1559255.881, "Gentílico": "fonte-boense", "Área Terr": "12156,034", "Populaçã": 25871, "Populaç_1": 27875 }, "geometry": { "type": "MultiPoint", "coordinates": [ [ -66.090355555555504, -2.51591944444442, 0.0 ] ] } },
{ "type": "Feature", "properties": { "CID_MUN_CD": 1302702, "CID_NM": "Manicoré", "CID_SG_UF": "AM", "CID_NU_IBG": "130270205", "CID_GM_PON": null, "CIDADE_TP": "Interior", "lat_cid": -5.81100722, "long_cid": -61.2940205, "CD_UF": "13", "NM_UF": "Amazonas", "SIGLA_UF": "AM", "NM_REGIAO": "Norte", "AREA_KM2": 1559255.881, "Gentílico": "manicoreense", "Área Terr": "48315,038", "Populaçã": 53914, "Populaç_1": 57758 }, "geometry": { "type": "MultiPoint", "coordinates": [ [ -61.294020555555498, -5.8110072222222, 0.0 ] ] } },
{ "type": "Feature", "properties": { "CID_MUN_CD": 1300904, "CID_NM": "Canutama", "CID_SG_UF": "AM", "CID_NU_IBG": "130090405", "CID_GM_PON": null, "CIDADE_TP": "Interior", "lat_cid": -6.53613722, "long_cid": -64.3841661, "CD_UF": "13", "NM_UF": "Amazonas", "SIGLA_UF": "AM", "NM_REGIAO": "Norte", "AREA_KM2": 1559255.881, "Gentílico": "canutamense", "Área Terr": "33642,732", "Populaçã": 16869, "Populaç_1": 17885 }, "geometry": { "type": "MultiPoint", "coordinates": [ [ -64.384166111111099, -6.53613722222224, 0.0 ] ] } },
{ "type": "Feature", "properties": { "CID_MUN_CD": 1300060, "CID_NM": "Amaturá", "CID_SG_UF": "AM", "CID_NU_IBG": "130006005", "CID_GM_PON": null, "CIDADE_TP": "Interior", "lat_cid": -3.36318667, "long_cid": -68.1995833, "CD_UF": "13", "NM_UF": "Amazonas", "SIGLA_UF": "AM", "NM_REGIAO": "Norte", "AREA_KM2": 1559255.881, "Gentílico": "amaturaense", "Área Terr": "4754,109", "Populaçã": 10819, "Populaç_1": 11411 }, "geometry": { "type": "MultiPoint", "coordinates": [ [ -68.199583333333294, -3.36318666666665, 0.0 ] ] } }
]
}
